SENTINEL-6              
1 46984U 20086A   23247.38066321 -.00000057  00000+0  18082-4 0  9999
2 46984  66.0401  86.9705 0007844 268.4777  91.5340 12.80929568130094
